[{"OBJECT_NAME":"STARLINK-35311","OBJECT_ID":"2025-232AD","EPOCH":"2026-03-09T19:37:39.892512","MEAN_MOTION":15.30200109,"ECCENTRICITY":0.00017902,"INCLINATION":53.1599,"RA_OF_ASC_NODE":103.4047,"ARG_OF_PERICENTER":89.3413,"MEAN_ANOMALY":270.7793,"EPHEMERIS_TYPE":0,"CLASSIFICATION_TYPE":"U","NORAD_CAT_ID":66032,"ELEMENT_SET_NO":999,"REV_AT_EPOCH":2345,"BSTAR":0.00060910164,"MEAN_MOTION_DOT":0.00017724,"MEAN_MOTION_DDOT":0},{"OBJECT_NAME":"ELECTRON KICK STAGE R\/B","OBJECT_ID":"2022-147B","EPOCH":"2026-03-09T22:28:20.187264","MEAN_MOTION":15.28920172,"ECCENTRICITY":0.00095089,"INCLINATION":97.642,"RA_OF_ASC_NODE":85.1135,"ARG_OF_PERICENTER":110.4683,"MEAN_ANOMALY":249.7578,"EPHEMERIS_TYPE":0,"CLASSIFICATION_TYPE":"U","NORAD_CAT_ID":54228,"ELEMENT_SET_NO":999,"REV_AT_EPOCH":18390,"BSTAR":0.00083201931,"MEAN_MOTION_DOT":0.00023374,"MEAN_MOTION_DDOT":0}]
